SL-16 R/B               
1 23405U 94077B   26159.21708472 -.00000283  00000+0 -12036-3 0  9994
2 23405  70.9805 162.0343 0002629 332.7112  27.3873 14.15573429629044
ARIANE 40+ R/B          
1 23561U 95021B   26159.23028656  .00000260  00000+0  96760-4 0  9998
2 23561  98.4412 229.4344 0005891 222.6124 206.4165 14.39828548632273
SL-16 R/B               
1 23705U 95058B   26158.94578080 -.00000090  00000+0 -21724-4 0  9997
2 23705  71.0215 350.7622 0013393 332.9630  27.0794 14.15505213580622
SL-16 R/B               
1 24298U 96051B   26158.96643935  .00000134  00000+0  99425-4 0  9993
2 24298  70.7634 344.1641 0014673 350.9359   9.1493 14.12442919534399
ORBVIEW 2 (SEASTAR)     
1 24883U 97037A   26159.30755918  .00000260  00000+0  10643-3 0  9996
2 24883  98.8682 326.0811 0002917 134.5661 225.5762 14.35548994521474
SL-16 R/B               
1 25400U 98043G   26159.10147643  .00000068  00000+0  47353-4 0  9993
2 25400  98.8360 113.1828 0010871 110.0763 250.1588 14.26067202451870
SL-16 R/B               
1 25407U 98045B   26158.91242733  .00000053  00000+0  50740-4 0  9994
2 25407  71.0121 351.8354 0009531 252.8605 107.1475 14.16204707439875
ISS (ZARYA)             
1 25544U 98067A   26158.90128688  .00007994  00000+0  14961-3 0  9996
2 25544  51.6338 346.0598 0006926 145.2709 214.8733 15.49660544570312
CZ-4B R/B               
1 25732U 99025C   26159.03701402  .00000053  00000+0  46286-4 0  9991
2 25732  98.6487 201.1055 0038244  85.1972 333.7855 14.18281952400975
OKEAN-O                 
1 25860U 99039A   26159.15563339  .00000662  00000+0  93409-4 0  9991
2 25860  97.9317 218.0568 0001823  78.4770 281.6647 14.80456808447773
SL-16 R/B               
1 25861U 99039B   26159.18582187  .00000497  00000+0  69673-4 0  9999
2 25861  97.9842 218.0742 0014000 328.4244  31.6127 14.81836506450268
DELTA 2 R/B             
1 25876U 99041E   26159.11557659  .00000878  00000+0  17901-3 0  9996
2 25876  51.7662 300.0336 0500945 255.1992  99.2946 14.12000165375800
HELIOS 1B               
1 25977U 99064A   26159.30223321  .00001514  00000+0  17140-3 0  9993
2 25977  98.1622  64.1847 0002353 104.3150 255.8327 14.87983530698730
TERRA                   
1 25994U 99068A   26159.24811162  .00000394  00000+0  89160-4 0  9992
2 25994  97.9459 209.1485 0000940 232.4953 169.4668 14.61096117408305
SL-16 R/B               
1 26070U 00006B   26159.30449849 -.00000223  00000+0 -89138-4 0  9996
2 26070  71.0032 267.3020 0015076  37.0023 323.2137 14.15836627361389
TITAN 4B R/B            
1 26474U 00047B   26159.18527289  .00003112  00000+0  19410-3 0  9993
2 26474  67.9873 145.9107 0045557 296.1923  63.4546 15.10144662406570
ENVISAT                 
1 27386U 02009A   26158.79335659  .00000110  00000+0  49598-4 0  9996
2 27386  98.3830 110.3215 0001339  91.0170 331.4929 14.39062705272139
IDEFIX & ARIANE 42P R/B 
1 27422U 02021B   26159.11024672  .00000248  00000+0  11076-3 0  9999
2 27422  98.5942  96.6918 0010615 283.6410  76.3591 14.31078110256956
AQUA                    
1 27424U 02022A   26159.23942459  .00000845  00000+0  17787-3 0  9995
2 27424  98.4273 128.3438 0001460  54.6672  75.3358 14.62144763281969
CZ-4B R/B               
1 27432U 02024C   26159.18819503  .00000042  00000+0  44191-4 0  9992
2 27432  98.8703 212.0664 0051046 125.2893 304.1771 14.14563013242034
MIDORI II (ADEOS-II)    
1 27597U 02056A   26159.17784782  .00000279  00000+0  12746-3 0  9990
2 27597  98.7874 118.3613 0002225  89.4129 270.7307 14.29344793223225
H-2A R/B                
1 27601U 02056E   26158.79991875  .00000230  00000+0  95250-4 0  9995
2 27601  98.3308 115.8169 0068881 252.9615 166.0380 14.33818201227029
CZ-4B R/B               
1 28059U 03049C   26159.01688971  .00000364  00000+0  94991-4 0  9991
2 28059  98.6896 157.4984 0047302 317.1871  42.5644 14.55094293199730
CZ-2C R/B               
1 28222U 04012C   26159.15620205  .00080162  00000+0  48576-3 0  9996
2 28222  97.7082 233.7812 0008748 323.6167  36.4503 15.77275540218478
SL-16 R/B               
1 28353U 04021B   26159.11015513 -.00000214  00000+0 -86694-4 0  9993
2 28353  71.0021  42.7392 0007495 265.8006  94.2259 14.14612296135627
CZ-4B R/B               
1 28415U 04035C   26159.04514323  .00008961  00000+0  30203-3 0  9991
2 28415  97.3374 192.2224 0031056  10.9178 349.2731 15.30493100193725
CZ-2C R/B               
1 28480U 04046B   26159.21655168  .00000077  00000+0  44259-4 0  9994
2 28480  98.1951  68.5574 0138141 246.9857 111.6705 14.27024712121411
ARIANE 5 R/B            
1 28499U 04049H   26159.03660324  .00000859  00000+0  10040-3 0  9995
2 28499  98.2717 330.9368 0085011  58.7859 302.1651 14.85436762159208
CZ-2D R/B               
1 28738U 05024B   26159.03577072  .00058556  00000+0  51563-3 0  9994
2 28738  97.3499 178.0132 0004794  73.1197 287.0590 15.68567062153900
ALOS (DAICHI)           
1 28931U 06002A   26159.10579475  .00001209  00000+0  20978-3 0  9992
2 28931  98.1320 114.7019 0001790  61.5359 298.6027 14.70032827 86762
