OBJECT_NAME,OBJECT_ID,EPOCH,MEAN_MOTION,ECCENTRICITY,INCLINATION,RA_OF_ASC_NODE,ARG_OF_PERICENTER,MEAN_ANOMALY,EPHEMERIS_TYPE,CLASSIFICATION_TYPE,NORAD_CAT_ID,ELEMENT_SET_NO,REV_AT_EPOCH,BSTAR,MEAN_MOTION_DOT,MEAN_MOTION_DDOT
SL-16 R/B,1994-077B,2026-06-08T05:12:36.119808,14.15573429,.00026299,70.9805,162.0343,332.7112,27.3873,0,U,23405,999,62904,-.1203578E-3,-.283E-5,0
ARIANE 40+ R/B,1995-021B,2026-06-08T05:31:36.758784,14.39828548,.00058915,98.4412,229.4344,222.6124,206.4165,0,U,23561,999,63227,.96759791E-4,.26E-5,0
SL-16 R/B,1995-058B,2026-06-07T22:41:55.461120,14.15505213,.00133938,71.0215,350.7622,332.9630,27.0794,0,U,23705,999,58062,-.21723645E-4,-.9E-6,0
SL-16 R/B,1996-051B,2026-06-07T23:11:40.359840,14.12442919,.00146736,70.7634,344.1641,350.9359,9.1493,0,U,24298,999,53439,.99425374E-4,.134E-5,0
ORBVIEW 2 (SEASTAR),1997-037A,2026-06-08T07:22:53.113152,14.35548994,.00029179,98.8682,326.0811,134.5661,225.5762,0,U,24883,999,52147,.10642982E-3,.26E-5,0
SL-16 R/B,1998-043G,2026-06-08T02:26:07.563552,14.26067202,.0010871,98.8360,113.1828,110.0763,250.1588,0,U,25400,999,45187,.47352892E-4,.68E-6,0
SL-16 R/B,1998-045B,2026-06-07T21:53:53.721312,14.16204707,.00095313,71.0121,351.8354,252.8605,107.1475,0,U,25407,999,43987,.50740347E-4,.53E-6,0
ISS (ZARYA),1998-067A,2026-06-07T21:37:51.186432,15.49660544,.00069263,51.6338,346.0598,145.2709,214.8733,0,U,25544,999,57031,.14960899E-3,.7994E-4,0
CZ-4B R/B,1999-025C,2026-06-08T00:53:18.011328,14.18281952,.00382444,98.6487,201.1055,85.1972,333.7855,0,U,25732,999,40097,.46285601E-4,.53E-6,0
OKEAN-O,1999-039A,2026-06-08T03:44:06.724896,14.80456808,.00018235,97.9317,218.0568,78.4770,281.6647,0,U,25860,999,44777,.93409491E-4,.662E-5,0
SL-16 R/B,1999-039B,2026-06-08T04:27:35.009568,14.81836506,.00140001,97.9842,218.0742,328.4244,31.6127,0,U,25861,999,45026,.69673432E-4,.497E-5,0
DELTA 2 R/B,1999-041E,2026-06-08T02:46:25.817376,14.12000165,.05009452,51.7662,300.0336,255.1992,99.2946,0,U,25876,999,37580,.17901315E-3,.878E-5,0
HELIOS 1B,1999-064A,2026-06-08T07:15:12.949344,14.87983530,.00023532,98.1622,64.1847,104.3150,255.8327,0,U,25977,999,69873,.17139565E-3,.1514E-4,0
TERRA,1999-068A,2026-06-08T05:57:16.843968,14.61096117,.00009408,97.9459,209.1485,232.4953,169.4668,0,U,25994,999,40830,.89159746E-4,.394E-5,0
SL-16 R/B,2000-006B,2026-06-08T07:18:28.669536,14.15836627,.00150765,71.0032,267.3020,37.0023,323.2137,0,U,26070,999,36138,-.89138479E-4,-.223E-5,0
TITAN 4B R/B,2000-047B,2026-06-08T04:26:47.577696,15.10144662,.00455571,67.9873,145.9107,296.1923,63.4546,0,U,26474,999,40657,.19409796E-3,.3112E-4,0
ENVISAT,2002-009A,2026-06-07T19:02:26.009376,14.39062705,.00013398,98.3830,110.3215,91.0170,331.4929,0,U,27386,999,27213,.49598381E-4,.11E-5,0
IDEFIX & ARIANE 42P R/B,2002-021B,2026-06-08T02:38:45.316608,14.31078110,.0010615,98.5942,96.6918,283.6410,76.3591,0,U,27422,999,25695,.11076065E-3,.248E-5,0
AQUA,2002-022A,2026-06-08T05:44:46.284576,14.62144763,.00014603,98.4273,128.3438,54.6672,75.3358,0,U,27424,999,28196,.17787032E-3,.845E-5,0
CZ-4B R/B,2002-024C,2026-06-08T04:31:00.050592,14.14563013,.00510466,98.8703,212.0664,125.2893,304.1771,0,U,27432,999,24203,.44191402E-4,.42E-6,0
MIDORI II (ADEOS-II),2002-056A,2026-06-08T04:16:06.051648,14.29344793,.00022256,98.7874,118.3613,89.4129,270.7307,0,U,27597,999,22322,.12746008E-3,.279E-5,0
H-2A R/B,2002-056E,2026-06-07T19:11:52.980000,14.33818201,.00688815,98.3308,115.8169,252.9615,166.0380,0,U,27601,999,22702,.95250044E-4,.23E-5,0
CZ-4B R/B,2003-049C,2026-06-08T00:24:19.270944,14.55094293,.00473021,98.6896,157.4984,317.1871,42.5644,0,U,28059,999,19973,.94990738E-4,.364E-5,0
CZ-2C R/B,2004-012C,2026-06-08T03:44:55.857120,15.77275540,.00087485,97.7082,233.7812,323.6167,36.4503,0,U,28222,999,21847,.48575762E-3,.80162E-3,0
SL-16 R/B,2004-021B,2026-06-08T02:38:37.403232,14.14612296,.00074951,71.0021,42.7392,265.8006,94.2259,0,U,28353,999,13562,-.86694479E-4,-.214E-5,0
CZ-4B R/B,2004-035C,2026-06-08T01:05:00.375072,15.30493100,.0031056,97.3374,192.2224,10.9178,349.2731,0,U,28415,999,19372,.30202728E-3,.8961E-4,0
CZ-2C R/B,2004-046B,2026-06-08T05:11:50.065152,14.27024712,.01381416,98.1951,68.5574,246.9857,111.6705,0,U,28480,999,12141,.44259205E-4,.77E-6,0
ARIANE 5 R/B,2004-049H,2026-06-08T00:52:42.519936,14.85436762,.00850114,98.2717,330.9368,58.7859,302.1651,0,U,28499,999,15920,.10040433E-3,.859E-5,0
CZ-2D R/B,2005-024B,2026-06-08T00:51:30.590208,15.68567062,.00047941,97.3499,178.0132,73.1197,287.0590,0,U,28738,999,15390,.51562739E-3,.58556E-3,0
ALOS (DAICHI),2006-002A,2026-06-08T02:32:20.666400,14.70032827,.00017902,98.1320,114.7019,61.5359,298.6027,0,U,28931,999,8676,.20978173E-3,.1209E-4,0
